#dP2019 11 19  0  0  0.00000000      96 __u+U ITR00 FIT  IAC
## 2080 172800.00000000   900.00000000 58806 0.0000000000000
+  115   C01C02C03C04C05C06C07C08C09C10C11C13C14C16C19C20C21
+        C22C23C24C25C26C27C28C29C30C32C33C34C35C36C37E01E02
+        E03E04E05E07E08E09E11E12E13E14E15E18E19E21E24E25E26
+        E27E30E31E33E36G01G02G03G04G05G06G07G08G09G10G11G12
+        G13G14G15G16G17G18G19G20G21G22G23G24G25G26G27G28G29
+        G30G31G32J01J02J03J07R01R02R03R05R06R07R08R09R10R11
+        R12R13R14R15R16R17R18R19R20R21R23R24R26  0  0  0  0
++        13 13 13 13  0  8  8  8  8  8  8  8  8  8  8  8  8
++         8  8  8  8  8  7  7  7  7  8  8  8  8  8  8  4  4
++         4  4  4  4  4  4  5  4  4  4  4  4  4  4  4  4  4
++         4  4  4  4  4  3  3  3  4  3  3  3  3  3  3  4  3
++         3  3  3  3  3  4  3  3  3  3  3  3  3  3  3  3  3
++         3  3  3  9  8  8 15  6  6  5  5 11  5  6  5 10  5
++         5  6  5  5  6  5  5  6  6  5  5  6  8  0  0  0  0
%c M  cc GPS ccc cccc cccc cccc cccc ccccc ccccc ccccc ccccc
%c cc cc ccc ccc cccc cccc cccc cccc ccccc ccccc ccccc ccccc
%f  0.0000000  0.000000000  0.00000000000  0.000000000000000
%f  0.0000000  0.000000000  0.00000000000  0.000000000000000
%i    0    0    0    0      0      0      0      0         0
%i    0    0    0    0      0      0      0      0         0
/* INFORMATION & ANALYSIS CENTER (IAC)            RAPID DATA
/* S/V CLOCKS ARE ALIGNED TO GNSS TIME                      
/* G:C1WC2W R:C1PC2P E:C1XC5X C:C2IC6I J:C1CC2S             
/* PCV:IGS14_2076 OL/AL:FES2004  NONE     YN ORB:CoN CLK:CoN
*  2019 11 19 16 45  0.00000000
PC01 -32311.580595  27068.924336    996.913182    159.440730
PC02   4398.758545  41936.966202   -798.968001    729.129152
PC03 -14827.847009  39442.681698    100.183104    -15.589189
PC04 -39591.653470  14504.510624    534.762721   -420.656470
PC05      0.000000      0.000000      0.000000 999999.999999
PC06  -7432.804131  27819.570901 -30328.919871    313.558721
PC07 -22121.999160  24351.713233  26301.826316   -274.345512
PC08 -19128.666855  37629.276025   3428.326285    -36.814718
PC09   6650.157018  36544.847107 -19366.172343    127.497713
PC10  -5050.970385  26592.211602  32449.203837   -381.710540
PC11  -2986.072662 -26994.341273  -6198.948411    -11.695853
PC13  -8871.078182  39742.861405 -11421.616811    114.335010
PC14  -2459.221560 -16670.281510  22256.178111    406.802339
PC16  -4103.709425  29789.038876 -29450.552050   -924.392335
PC19  12872.549989  16419.348262 -18523.302107    249.158008
PC20  -7579.958758  14405.927919 -22656.697632   -311.161037
PC21  24191.779420  -3703.927981  13433.450594    170.687564
PC22  26195.977671   8990.905710  -3542.809363   -390.693788
PC23 -17729.332644  -3495.302171 -21255.523641   -878.294478
PC24  14435.287037 -22517.252387  -7911.862727   -879.659202
PC25  -3100.510588 -18235.880839 -20888.736709   -419.434256
PC26  22182.273697 -14362.608379   8917.365225    466.263298
PC27 -14531.181998   6816.130169  22816.629273    227.909750
PC28 -16408.626414 -13869.410378  17807.235665    219.019964
PC29   9700.408630  26056.197805  -2419.524018    148.311070
PC30  -3461.695524  23495.251140  14646.187311    226.929387
PC32 -24155.512973   3881.082483 -13414.385465   -866.357384
PC33 -12839.438723 -16398.066297  18563.794646   -584.053954
PC34   3314.402546 -23708.361005 -14355.467398   -246.268245
PC35  16888.774860  13394.174939 -17703.264584   -570.120202
PC36   2507.952103  18418.105559  20842.443623   -902.571062
PC37 -22566.570422  13468.772266  -9382.791217   -774.417966
PE01  21814.245701   5067.250940  19362.378054   -735.174254
PE02 -21877.953871  -4997.235658 -19301.398805     93.008163
PE03 -24628.943025 -15988.847472  -3678.046492   -234.787412
PE04  22396.147712     85.067235  19352.066266   -408.870467
PE05 -12450.770198 -22704.833255  14331.249175   -429.906007
PE07  -6927.562585  16107.637115 -23850.946868   -301.389371
PE08 -22230.235714    158.520661 -19542.818915   6260.903428
PE09   6686.232594 -16064.155705  23941.343061   6247.751384
PE11   9657.080587 -26406.698414  -9264.028537     54.423076
PE12  16462.206757  -8990.882216 -22894.034410   6092.066831
PE13  -9612.092956  26354.486000   9463.059572    395.542263
PE14   8745.964405 -21038.301352 -22268.804627   -800.235417
PE15 -16326.029403   9388.702335  22847.678446    887.263442
PE18   1806.184309  22037.518116  11416.747622   -895.336059
PE19  23986.949264  17263.792798   1648.658216     -2.832668
PE21   2934.595645  16351.008857  24504.065399   -566.779828
PE24  17788.072625 -18049.141666 -15284.210348   5758.931259
PE25  -2826.687626 -16378.438757 -24481.572028   -496.206371
PE26   2740.418704  27857.743676  -9638.463136   3858.710375
PE27 -17768.400240  18114.293642  15256.306885    342.363836
PE30 -28033.266758   9054.928484  -2947.389029   4371.818685
PE31  27975.679603  -9221.337777   2942.804367   -470.558314
PE33  13470.098564  13124.040939 -22849.554492   -471.747849
PE36  -2764.619582 -27891.585472   9516.642989    634.795962
PG01 -14273.582041  21573.772938   5016.672464   -202.609651
PG02  16469.057229  -3409.344821 -19903.194436   -349.987865
PG03 -15272.832900  13194.309755 -17279.420253    -39.173693
PG04   3182.065500  22584.380799 -13525.474875    -10.790200
PG05  26507.755497  -2896.934312    137.907268     -3.655179
PG06  10520.623434  11518.457743 -21445.613881   -128.640899
PG07  -3558.202096  23987.156655  10535.941359   -152.226996
PG08 -13537.728682   6792.751269  21864.531920    -13.916952
PG09   3724.468192  22374.690492 -13863.596170    -87.440171
PG10 -14703.850988 -11921.227898  18785.636812   -140.764725
PG11  -8941.050557  21953.610337  11776.694330   -443.461952
PG12  20157.324223  -9771.312260 -14356.509154    181.859965
PG13  17066.444154   3048.743547  20021.099540    -31.848651
PG14 -18176.247835 -15426.951885 -11575.657707    -49.587905
PG15  13048.938617  -8969.935409  21039.653365   -271.530394
PG16 -26741.345992  -1292.185870  -1478.976474    -94.737324
PG17  14658.052416  22100.101188  -1648.963497    165.877991
PG18 -16287.721327  16552.974115  12298.744874    101.224327
PG19  17155.413371  17929.323483  -9737.379431   -237.593575
PG20  -4066.188537 -15274.691122  21246.414261    527.497874
PG21   -968.584216 -23378.539980  13547.633444    -83.608475
PG22 -21355.651680  11381.557496 -10613.835878   -772.702973
PG23  -5304.622060  16791.364920 -19424.999771   -154.584169
PG24  14409.719007 -20765.279209   7369.143410     -5.102958
PG25   5388.493606 -15122.184251 -21329.017690    -17.251993
PG26 -23733.177011  -5339.880737 -10916.728773     87.739155
PG27 -18675.052902  -5802.487000  18003.612398   -124.879760
PG28  14177.842936  12916.275786  18928.047503    754.397494
PG29  -1402.089022 -21899.925751 -14974.927696     40.052305
PG30   5248.032968  18555.919353  18213.500846    -87.416422
PG31 -12362.557928  -9151.782968 -21641.515751     -4.268162
PG32 -16376.945374 -20881.722148  -2174.228410    130.026306
PJ01 -29757.773867  15630.492076 -20844.775281   -331.438568
PJ02 -28917.568451  30252.306368   9568.986828     -0.100556
PJ03 -25465.203293  23932.439114  28679.895418     -6.901985
PJ07 -25415.112977  33655.452889    -37.527127     -0.018032
PR01 -13689.980413 -14435.504678  15949.527003     52.910304
PR02 -23597.757317  -9013.045058  -3726.712623    398.512978
PR03 -17344.957147   1799.246316 -18606.032299      5.099479
PR05  15654.854573  14453.137389 -14005.636957     39.698774
PR06  23775.638826   7942.288280   4629.239152    165.957458
PR07  16874.051815  -2209.613966  19010.836673    -29.645060
PR08   1222.323422 -11419.789228  22820.923988     14.334274
PR09  19595.333752  -4484.470789  15762.871933    101.927989
PR10  10825.664014 -16957.913517 -15605.056344    -51.482482
PR11  11641.006046 -17112.616539 -14921.903183     19.450654
PR12  -3848.561141 -10521.971092 -22882.035013     80.620906
PR13 -18026.299936   2627.874968 -17865.690515    -31.181062
PR14 -21358.043776  13735.527081  -2332.840299     45.236223
PR15 -12394.134022  17072.163062  14366.239117    104.806026
PR16   4322.069798  10490.504600  22836.613496      0.206971
PR17  -9022.041149  10138.173480  21620.834408    277.148583
PR18  -2581.613127  23264.782688  10098.471969     15.064171
PR19   4535.431443  24199.791756  -6688.543194    -64.755549
PR20  10124.162101   9729.283556 -21275.724624   -396.618989
PR21   8755.588905 -10857.931149 -21343.843560    -86.280633
PR23  -7286.718090 -21116.292908  12305.204385    267.832924
PR24 -10525.895299  -7280.330667  22045.016633   -186.919258
PR26   9862.754701  13271.070771 -19421.553737      9.910231
EOF
